1 45362U 20019C   23078.47524079  .00013095  00000-0  89549-3 0  9996
2 45362  53.0551   2.8205 0001356  83.1956 276.9187 15.06435774166011
1 45362U 20019C   23078.80697996  .00015783  00000-0  10759-2 0  9994
2 45362  53.0545   1.3321 0002199  95.1764 264.9476 15.06406336166057
1 45362U 20019C   23078.80697996  .00015783  00000-0  10759-2 0  9994
2 45362  53.0545   1.3321 0002199  95.1764 264.9476 15.06406336166068
1 45362U 20019C   23079.07236849  .00027709  00000-0  18722-2 0  9999
2 45362  53.0547   0.1405 0001347 119.3070 240.8054 15.06391935166099
1 45362U 20019C   23079.07236849  .00027709  00000-0  18722-2 0  9999
2 45362  53.0547   0.1405 0001347 119.3070 240.8054 15.06391935166101
1 45362U 20019C   23080.20023832  .00035478  00000-0  23841-2 0  9992
2 45362  53.0554 355.0773 0001342 123.2560 236.8557 15.06472132166261
1 45362U 20019C   23080.20023832  .00035478  00000-0  23841-2 0  9992
2 45362  53.0554 355.0773 0001342 123.2560 236.8557 15.06472132166272
1 45362U 20019C   23080.93006976  .00014349  00000-0  98075-3 0  9998
2 45362  53.0545 351.8013 0002072 155.7954 204.3133 15.06380832166377
1 45362U 20019C   23081.12911848  .00020510  00000-0  13930-2 0  9996
2 45362  53.0536 350.9071 0001052 155.9014 204.2025 15.06367734166417
1 45362U 20019C   23081.92528804  .00034562  00000-0  23268-2 0  9997
2 45362  53.0541 347.3335 0000850  92.4970 267.6116 15.06416283166527
1 45362U 20019C   23082.12432295  .00025685  00000-0  17357-2 0  9996
2 45362  53.0538 346.4410 0000854 125.4931 234.6137 15.06426025166550
1 45362U 20019C   23082.12432295  .00025685  00000-0  17357-2 0  9996
2 45362  53.0538 346.4410 0000854 125.4931 234.6137 15.06426025166561
1 45362U 20019C   23082.92049588  .00026868  00000-0  18162-2 0  9992
2 45362  53.0550 342.8531 0002769 164.1365 195.9711 15.06389530166675
1 45362U 20019C   23083.11954342  .00089234  00000-0  59272-2 0  9990
2 45362  53.0538 341.9705 0001063  83.8322 276.2788 15.06444109166705
1 45362U 20019C   23083.11954342  .00089234  00000-0  59272-2 0  9990
2 45362  53.0538 341.9705 0001063  83.8322 276.2788 15.06444109166716
1 45362U 20019C   23083.84932669  .00040398  00000-0  27089-2 0  9997
2 45362  53.0541 338.6952 0000902  65.8795 294.2288 15.06489784166827
1 45362U 20019C   23083.91566890  .00042142  00000-0  28237-2 0  9999
2 45362  53.0539 338.3976 0000912  66.0114 294.0971 15.06498362166825
1 45362U 20019C   23084.84452233  .00012217  00000-0  83789-3 0  9991
2 45362  53.0539 334.2272 0000794 129.2851 230.8209 15.06388971166979
1 45362U 20019C   23084.91087174  .00012171  00000-0  83512-3 0  9990
2 45362  53.0538 333.9320 0000788 145.4804 214.6236 15.06374151166974
1 45362U 20019C   23084.91087174  .00012171  00000-0  83512-3 0  9990
2 45362  53.0538 333.9320 0000788 145.4804 214.6236 15.06374151166985
1 45362U 20019C   23085.83975771  .00016897  00000-0  11515-2 0  9993
2 45362  53.0535 329.7571 0000809  91.7628 268.3453 15.06368744167118
1 45362U 20019C   23085.83975771  .00016897  00000-0  11515-2 0  9993
2 45362  53.0535 329.7571 0000809  91.7628 268.3453 15.06368744167129
1 45362U 20019C   23086.10514679  .00026319  00000-0  17796-2 0  9997
2 45362  53.0538 328.5691 0000950 104.2586 255.8508 15.06391910167158
1 45362U 20019C   23086.10514679  .00026319  00000-0  17796-2 0  9997
2 45362  53.0538 328.5691 0000950 104.2586 255.8508 15.06391910167169
1 45362U 20019C   23086.90131624  .00007189  00000-0  50111-3 0  9993
2 45362  53.0537 324.9931 0001155  96.1554 263.9567 15.06393330167272
1 45362U 20019C   23086.90131624  .00007189  00000-0  50111-3 0  9993
2 45362  53.0537 324.9931 0001155  96.1554 263.9567 15.06393330167283
1 45362U 20019C   23087.10035820  .00015230  00000-0  10394-2 0  9991
2 45362  53.0538 324.0992 0001259  98.7973 261.3158 15.06390361167302
1 45362U 20019C   23087.89649757  .00025551  00000-0  17256-2 0  9998
2 45362  53.0525 320.5275 0000930 128.7219 231.3853 15.06451899167421
1 45362U 20019C   23087.96284163  .00029360  00000-0  19786-2 0  9994
2 45362  53.0528 320.2301 0000911 126.1262 233.9811 15.06459016167432
1 45362U 20019C   23087.96284163  .00029360  00000-0  19786-2 0  9994
2 45362  53.0528 320.2301 0000911 126.1262 233.9811 15.06459016167443
1 45362U 20019C   23088.89170306  .00028767  00000-0  19413-2 0  9997
2 45362  53.0540 316.0612 0001455  73.4012 286.7137 15.06418085167578
1 45362U 20019C   23088.89170306  .00028767  00000-0  19413-2 0  9997
2 45362  53.0540 316.0612 0001455  73.4012 286.7137 15.06418085167589
1 45362U 20019C   23089.88688637  .00035185  00000-0  23655-2 0  9993
2 45362  53.0536 311.5932 0001015  58.2771 301.8317 15.06459178167727
1 45362U 20019C   23089.88688637  .00035185  00000-0  23655-2 0  9993
2 45362  53.0536 311.5932 0001015  58.2771 301.8317 15.06459178167738
1 45362U 20019C   23090.81574771  .00015471  00000-0  10556-2 0  9993
2 45362  53.0538 307.4219 0000619 138.5152 221.5884 15.06387462167874
1 45362U 20019C   23091.01479475  .00026894  00000-0  18185-2 0  9998
2 45362  53.0536 306.5302 0000437  51.9940 308.1089 15.06379940167901
1 45362U 20019C   23091.61192177  .00016687  00000-0  11367-2 0  9999
2 45362  53.0532 303.8488 0000632  88.6392 271.4669 15.06393215167982
1 45362U 20019C   23091.61192177  .00016687  00000-0  11367-2 0  9999
2 45362  53.0532 303.8488 0000632  88.6392 271.4669 15.06393215167993
1 45362U 20019C   23091.87730660  .00017124  00000-0  11655-2 0  9999
2 45362  53.0529 302.6577 0000723 118.3521 241.7541 15.06405442168021
1 45362U 20019C   23092.00999886  .00017801  00000-0  12105-2 0  9995
2 45362  53.0539 302.0611 0000840 107.7932 252.3148 15.06412524168045
1 45362U 20019C   23092.00999886  .00017801  00000-0  12105-2 0  9995
2 45362  53.0539 302.0611 0000840 107.7932 252.3148 15.06412524168056
1 45362U 20019C   23092.87252013  .00003909  00000-0  28125-3 0  9998
2 45362  53.0526 298.1886 0000893 104.4658 255.6430 15.06387864168179
1 45362U 20019C   23092.87252013  .00003909  00000-0  28125-3 0  9998
2 45362  53.0526 298.1886 0000893 104.4658 255.6430 15.06387864168180
1 45362U 20019C   23093.00521538  .00007058  00000-0  49238-3 0  9992
2 45362  53.0529 297.5928 0000941 106.7777 253.3315 15.06388994168197
1 45362U 20019C   23094.00041233  .00017047  00000-0  11598-2 0  9998
2 45362  53.0525 293.1247 0000862 102.6213 257.4873 15.06422902168351
1 45362U 20019C   23094.53119592  .00012031  00000-0  82534-3 0  9997
2 45362  53.0522 290.7419 0002411  94.3429 265.7835 15.06391998168428
1 45362U 20019C   23094.53119592  .00012031  00000-0  82534-3 0  9997
2 45362  53.0522 290.7419 0002411  94.3429 265.7835 15.06391998168439
1 45362U 20019C   23094.86293307  .00012524  00000-0  85844-3 0  9994
2 45362  53.0523 289.2527 0000972  70.6565 289.4529 15.06387495168475
1 45362U 20019C   23094.86293307  .00012524  00000-0  85844-3 0  9994
2 45362  53.0523 289.2527 0000972  70.6565 289.4529 15.06387495168486
1 45362U 20019C   23095.52639702  .00016006  00000-0  10906-2 0  9996
2 45362  53.0521 286.2723 0000795  80.4550 279.6529 15.06414058168572
1 45362U 20019C   23095.79177911  .00020713  00000-0  14042-2 0  9999
2 45362  53.0525 285.0823 0000918  65.6236 294.4848 15.06430937168615
1 45362U 20019C   23095.79177911  .00020713  00000-0  14042-2 0  9999
2 45362  53.0525 285.0823 0000918  65.6236 294.4848 15.06430937168626
1 45362U 20019C   23096.25620442  .00010305  00000-0  70923-3 0  9990
2 45362  53.0527 282.9978 0001083  56.6182 303.4911 15.06422907168696
1 45362U 20019C   23096.52159502 -.00001405  00000-0 -75423-4 0  9998
2 45362  53.0531 281.8054 0001167  93.9874 266.1249 15.06400271168722
1 45362U 20019C   23096.52159502 -.00001405  00000-0 -75423-4 0  9998
2 45362  53.0531 281.8054 0001167  93.9874 266.1249 15.06400271168733
1 45362U 20019C   23096.78698445  .00001478  00000-0  11810-3 0  9997
2 45362  53.0531 280.6148 0000949  78.0263 282.0832 15.06395359168765
1 45362U 20019C   23097.51680194  .00019912  00000-0  13514-2 0  9995
2 45362  53.0528 277.3382 0000972  77.8629 282.2469 15.06412448168872
1 45362U 20019C   23097.84853061  .00019151  00000-0  13002-2 0  9993
2 45362  53.0532 275.8489 0000958  76.5463 283.5633 15.06425643168939
1 45362U 20019C   23098.18026482  .00007889  00000-0  54768-3 0  9990
2 45362  53.0516 274.3583 0001407  74.7005 285.4140 15.06413913168988
1 45362U 20019C   23098.51200401 -.00005913  00000-0 -37853-3 0  9996
2 45362  53.0528 272.8697 0001014  77.9913 282.1189 15.06389036169028
1 45362U 20019C   23098.51200401 -.00005913  00000-0 -37853-3 0  9996
2 45362  53.0528 272.8697 0001014  77.9913 282.1189 15.06389036169039
1 45362U 20019C   23099.17547924  .00020632  00000-0  14001-2 0  9995
2 45362  53.0536 269.8913 0001140  84.7635 275.3484 15.06396445169126
1 45362U 20019C   23099.17547924  .00020632  00000-0  14001-2 0  9995
2 45362  53.0536 269.8913 0001140  84.7635 275.3484 15.06396445169137
1 45362U 20019C   23099.83894137  .00021131  00000-0  14323-2 0  9991
2 45362  53.0534 266.9130 0001124  79.3022 280.8094 15.06424449169220
1 45362U 20019C   23100.17067529 -.00002900  00000-0 -17589-3 0  9991
2 45362  53.0529 265.4238 0000423 125.2563 234.8465 15.06396191169288
1 45362U 20019C   23100.56876110  .00015325  00000-0  10456-2 0  9996
2 45362  53.0532 263.6364 0000828  99.1827 260.9256 15.06395462169337
1 45362U 20019C   23100.83414850  .00027056  00000-0  18281-2 0  9993
2 45362  53.0528 262.4453 0000965  90.5348 269.5751 15.06403883169379
1 45362U 20019C   23101.56395092  .00027661  00000-0  18664-2 0  9997
2 45362  53.0524 259.1693 0000962  87.9286 272.1813 15.06443403169485
1 45362U 20019C   23101.82932883  .00027378  00000-0  18469-2 0  9999
2 45362  53.0526 257.9781 0000969  84.1313 275.9787 15.06457118169522
1 45362U 20019C   23102.16107871  .00006758  00000-0  47216-3 0  9990
2 45362  53.0521 256.4889 0003491  68.9603 291.1759 15.06400675169586
1 45362U 20019C   23102.82455592  .00027566  00000-0  18637-2 0  9993
2 45362  53.0527 253.5106 0001664  55.2834 304.8311 15.06371067169686
